{"type": "FeatureCollection", "features": [ {"type": "Feature", "properties": {"norad_id": 66959, "name": "STARLINK-35887", "group": "last-30-days", "lat": 4.798547635986303, "lon": -95.68178333770764, "alt_km": 373.85249764188393, "timestamp": "2025-12-25T11:37:43.135491+00:00", "meta": {"OBJECT_NAME": "STARLINK-35887", "OBJECT_ID": "2025-288A", "EPOCH": "2025-12-25T04:00:01.998720", "MEAN_MOTION": 15.65946645, "ECCENTRICITY": 0.000121, "INCLINATION": 42.9998, "RA_OF_ASC_NODE": 91.3877, "ARG_OF_PERICENTER": 269.4372, "MEAN_ANOMALY": 270.3026, "EPHEMERIS_TYPE": 0, "CLASSIFICATION_TYPE": "U", "NORAD_CAT_ID": 66959, "ELEMENT_SET_NO": 999, "REV_AT_EPOCH": 382, "BSTAR": -0.021592, "MEAN_MOTION_DOT": -0.01994303, "MEAN_MOTION_DDOT": 0}, "tle": {"line1": "1 66959U 25288A   25359.16668980 -.01994303  00000+0 -21592-1 0  9998", "line2": "2 66959  42.9998  91.3877 0001210 269.4372 270.3026 15.65946645  3824"}}, "geometry": {"type": "Point", "coordinates": [-95.68178333770764, 4.798547635986303]}}, {"type": "Feature", "properties": {"norad_id": 66960, "name": "STARLINK-35879", "group": "last-30-days", "lat": 3.49577211373274, "lon": -94.2769773242208, "alt_km": 373.987178836318, "timestamp": "2025-12-25T11:37:43.135501+00:00", "meta": {"OBJECT_NAME": "STARLINK-35879", "OBJECT_ID": "2025-288B", "EPOCH": "2025-12-25T04:00:01.998720", "MEAN_MOTION": 15.65944199, "ECCENTRICITY": 0.0001257, "INCLINATION": 42.9998, "RA_OF_ASC_NODE": 91.3827, "ARG_OF_PERICENTER": 268.5282, "MEAN_ANOMALY": 273.1305, "EPHEMERIS_TYPE": 0, "CLASSIFICATION_TYPE": "U", "NORAD_CAT_ID": 66960, "ELEMENT_SET_NO": 999, "REV_AT_EPOCH": 382, "BSTAR": -0.02157, "MEAN_MOTION_DOT": -0.0199237, "MEAN_MOTION_DDOT": 0}, "tle": {"line1": "1 66960U 25288B   25359.16668980 -.01992370  00000+0 -21570-1 0  9998", "line2": "2 66960  42.9998  91.3827 0001257 268.5282 273.1305 15.65944199  3825"}}, "geometry": {"type": "Point", "coordinates": [-94.2769773242208, 3.49577211373274]}}, {"type": "Feature", "properties": {"norad_id": 66961, "name": "STARLINK-35761", "group": "last-30-days", "lat": 2.1891914381151496, "lon": -92.8740426682278, "alt_km": 374.10064656451505, "timestamp": "2025-12-25T11:37:43.135511+00:00", "meta": {"OBJECT_NAME": "STARLINK-35761", "OBJECT_ID": "2025-288C", "EPOCH": "2025-12-25T04:00:01.998720", "MEAN_MOTION": 15.65945908, "ECCENTRICITY": 0.0001153, "INCLINATION": 43, "RA_OF_ASC_NODE": 91.3779, "ARG_OF_PERICENTER": 267.3579, "MEAN_ANOMALY": 276.2172, "EPHEMERIS_TYPE": 0, "CLASSIFICATION_TYPE": "U", "NORAD_CAT_ID": 66961, "ELEMENT_SET_NO": 999, "REV_AT_EPOCH": 382, "BSTAR": -0.021584, "MEAN_MOTION_DOT": -0.01993546, "MEAN_MOTION_DDOT": 0}, "tle": {"line1": "1 66961U 25288C   25359.16668980 -.01993546  00000+0 -21584-1 0  9990", "line2": "2 66961  43.0000  91.3779 0001153 267.3579 276.2172 15.65945908  3824"}}, "geometry": {"type": "Point", "coordinates": [-92.8740426682278, 2.1891914381151496]}}, {"type": "Feature", "properties": {"norad_id": 66962, "name": "STARLINK-35874", "group": "last-30-days", "lat": 0.8832129554754626, "lon": -91.47614362137072, "alt_km": 374.2513047745015, "timestamp": "2025-12-25T11:37:43.135522+00:00", "meta": {"OBJECT_NAME": "STARLINK-35874", "OBJECT_ID": "2025-288D", "EPOCH": "2025-12-25T04:00:01.998720", "MEAN_MOTION": 15.6594486, "ECCENTRICITY": 0.000122, "INCLINATION": 43.0001, "RA_OF_ASC_NODE": 91.3726, "ARG_OF_PERICENTER": 267.6904, "MEAN_ANOMALY": 277.8025, "EPHEMERIS_TYPE": 0, "CLASSIFICATION_TYPE": "U", "NORAD_CAT_ID": 66962, "ELEMENT_SET_NO": 999, "REV_AT_EPOCH": 382, "BSTAR": -0.021574, "MEAN_MOTION_DOT": -0.01992692, "MEAN_MOTION_DDOT": 0}, "tle": {"line1": "1 66962U 25288D   25359.16668980 -.01992692  00000+0 -21574-1 0  9991", "line2": "2 66962  43.0001  91.3726 0001220 267.6904 277.8025 15.65944860  3828"}}, "geometry": {"type": "Point", "coordinates": [-91.47614362137072, 0.8832129554754626]}}, {"type": "Feature", "properties": {"norad_id": 66963, "name": "STARLINK-36133", "group": "last-30-days", "lat": -0.42430776365920336, "lon": -90.07745330546592, "alt_km": 374.4724481472658, "timestamp": "2025-12-25T11:37:43.135536+00:00", "meta": {"OBJECT_NAME": "STARLINK-36133", "OBJECT_ID": "2025-288E", "EPOCH": "2025-12-25T04:00:01.998720", "MEAN_MOTION": 15.65947261, "ECCENTRICITY": 0.0001236, "INCLINATION": 43.0003, "RA_OF_ASC_NODE": 91.368, "ARG_OF_PERICENTER": 271.4252, "MEAN_ANOMALY": 275.9857, "EPHEMERIS_TYPE": 0, "CLASSIFICATION_TYPE": "U", "NORAD_CAT_ID": 66963, "ELEMENT_SET_NO": 999, "REV_AT_EPOCH": 382, "BSTAR": -0.021648, "MEAN_MOTION_DOT": -0.01998847, "MEAN_MOTION_DDOT": 0}, "tle": {"line1": "1 66963U 25288E   25359.16668980 -.01998847  00000+0 -21648-1 0  9992", "line2": "2 66963  43.0003  91.3680 0001236 271.4252 275.9857 15.65947261  3826"}}, "geometry": {"type": "Point", "coordinates": [-90.07745330546592, -0.42430776365920336]}}, {"type": "Feature", "properties": {"norad_id": 66964, "name": "STARLINK-36104", "group": "last-30-days", "lat": -1.7293730274095698, "lon": -88.68096700552043, "alt_km": 374.6415096001183, "timestamp": "2025-12-25T11:37:43.135546+00:00", "meta": {"OBJECT_NAME": "STARLINK-36104", "OBJECT_ID": "2025-288F", "EPOCH": "2025-12-25T04:00:01.998720", "MEAN_MOTION": 15.65945891, "ECCENTRICITY": 0.0001295, "INCLINATION": 43.0003, "RA_OF_ASC_NODE": 91.3631, "ARG_OF_PERICENTER": 273.2326, "MEAN_ANOMALY": 276.0937, "EPHEMERIS_TYPE": 0, "CLASSIFICATION_TYPE": "U", "NORAD_CAT_ID": 66964, "ELEMENT_SET_NO": 999, "REV_AT_EPOCH": 382, "BSTAR": -0.021609, "MEAN_MOTION_DOT": -0.01995644, "MEAN_MOTION_DDOT": 0}, "tle": {"line1": "1 66964U 25288F   25359.16668980 -.01995644  00000+0 -21609-1 0  9992", "line2": "2 66964  43.0003  91.3631 0001295 273.2326 276.0937 15.65945891  3828"}}, "geometry": {"type": "Point", "coordinates": [-88.68096700552043, -1.7293730274095698]}}, {"type": "Feature", "properties": {"norad_id": 66965, "name": "STARLINK-36067", "group": "last-30-days", "lat": -3.0360629124812712, "lon": -87.27917056472002, "alt_km": 374.6750534453149, "timestamp": "2025-12-25T11:37:43.135555+00:00", "meta": {"OBJECT_NAME": "STARLINK-36067", "OBJECT_ID": "2025-288G", "EPOCH": "2025-12-25T04:00:01.998720", "MEAN_MOTION": 15.65945216, "ECCENTRICITY": 0.0001196, "INCLINATION": 43.0001, "RA_OF_ASC_NODE": 91.3587, "ARG_OF_PERICENTER": 268.7862, "MEAN_ANOMALY": 282.4569, "EPHEMERIS_TYPE": 0, "CLASSIFICATION_TYPE": "U", "NORAD_CAT_ID": 66965, "ELEMENT_SET_NO": 999, "REV_AT_EPOCH": 382, "BSTAR": -0.021571, "MEAN_MOTION_DOT": -0.01992448, "MEAN_MOTION_DDOT": 0}, "tle": {"line1": "1 66965U 25288G   25359.16668980 -.01992448  00000+0 -21571-1 0  9990", "line2": "2 66965  43.0001  91.3587 0001196 268.7862 282.4569 15.65945216  3824"}}, "geometry": {"type": "Point", "coordinates": [-87.27917056472002, -3.0360629124812712]}}, {"type": "Feature", "properties": {"norad_id": 66966, "name": "STARLINK-36139", "group": "last-30-days", "lat": -4.34155276722236, "lon": -85.87390719475012, "alt_km": 374.8647870817131, "timestamp": "2025-12-25T11:37:43.135565+00:00", "meta": {"OBJECT_NAME": "STARLINK-36139", "OBJECT_ID": "2025-288H", "EPOCH": "2025-12-25T04:00:01.998720", "MEAN_MOTION": 15.65949083, "ECCENTRICITY": 0.0001166, "INCLINATION": 43.0002, "RA_OF_ASC_NODE": 91.3537, "ARG_OF_PERICENTER": 271.3817, "MEAN_ANOMALY": 281.7804, "EPHEMERIS_TYPE": 0, "CLASSIFICATION_TYPE": "U", "NORAD_CAT_ID": 66966, "ELEMENT_SET_NO": 999, "REV_AT_EPOCH": 382, "BSTAR": -0.021679, "MEAN_MOTION_DOT": -0.02001473, "MEAN_MOTION_DDOT": 0}, "tle": {"line1": "1 66966U 25288H   25359.16668980 -.02001473  00000+0 -21679-1 0  9990", "line2": "2 66966  43.0002  91.3537 0001166 271.3817 281.7804 15.65949083  3828"}}, "geometry": {"type": "Point", "coordinates": [-85.87390719475012, -4.34155276722236]}}, {"type": "Feature", "properties": {"norad_id": 66967, "name": "STARLINK-36136", "group": "last-30-days", "lat": -5.641502184131596, "lon": -84.46701645670187, "alt_km": 374.9713130371201, "timestamp": "2025-12-25T11:37:43.135577+00:00", "meta": {"OBJECT_NAME": "STARLINK-36136", "OBJECT_ID": "2025-288J", "EPOCH": "2025-12-25T04:00:01.998720", "MEAN_MOTION": 15.65942413, "ECCENTRICITY": 0.0001226, "INCLINATION": 43.0002, "RA_OF_ASC_NODE": 91.3486, "ARG_OF_PERICENTER": 270.7754, "MEAN_ANOMALY": 284.3063, "EPHEMERIS_TYPE": 0, "CLASSIFICATION_TYPE": "U", "NORAD_CAT_ID": 66967, "ELEMENT_SET_NO": 999, "REV_AT_EPOCH": 382, "BSTAR": -0.021572, "MEAN_MOTION_DOT": -0.0199235, "MEAN_MOTION_DDOT": 0}, "tle": {"line1": "1 66967U 25288J   25359.16668980 -.01992350  00000+0 -21572-1 0  9995", "line2": "2 66967  43.0002  91.3486 0001226 270.7754 284.3063 15.65942413  3828"}}, "geometry": {"type": "Point", "coordinates": [-84.46701645670187, -5.641502184131596]}}, {"type": "Feature", "properties": {"norad_id": 66968, "name": "STARLINK-36152", "group": "last-30-days", "lat": -6.937779980849128, "lon": -83.05372372824642, "alt_km": 375.0643989158825, "timestamp": "2025-12-25T11:37:43.135587+00:00", "meta": {"OBJECT_NAME": "STARLINK-36152", "OBJECT_ID": "2025-288K", "EPOCH": "2025-12-25T04:00:01.998720", "MEAN_MOTION": 15.65942007, "ECCENTRICITY": 0.0001252, "INCLINATION": 43.0004, "RA_OF_ASC_NODE": 91.3439, "ARG_OF_PERICENTER": 269.817, "MEAN_ANOMALY": 287.1796, "EPHEMERIS_TYPE": 0, "CLASSIFICATION_TYPE": "U", "NORAD_CAT_ID": 66968, "ELEMENT_SET_NO": 999, "REV_AT_EPOCH": 382, "BSTAR": -0.021547, "MEAN_MOTION_DOT": -0.01990339, "MEAN_MOTION_DDOT": 0}, "tle": {"line1": "1 66968U 25288K   25359.16668980 -.01990339  00000+0 -21547-1 0  9993", "line2": "2 66968  43.0004  91.3439 0001252 269.8170 287.1796 15.65942007  3822"}}, "geometry": {"type": "Point", "coordinates": [-83.05372372824642, -6.937779980849128]}}]}